[{"OBJECT_NAME":"STARLINK-35740","OBJECT_ID":"2025-244E","EPOCH":"2026-03-09T18:15:21.503520","MEAN_MOTION":15.30219277,"ECCENTRICITY":0.00013531,"INCLINATION":53.1592,"RA_OF_ASC_NODE":229.3552,"ARG_OF_PERICENTER":59.526,"MEAN_ANOMALY":300.5874,"EPHEMERIS_TYPE":0,"CLASSIFICATION_TYPE":"U","NORAD_CAT_ID":66210,"ELEMENT_SET_NO":999,"REV_AT_EPOCH":2167,"BSTAR":0.00033890228,"MEAN_MOTION_DOT":9.697e-5,"MEAN_MOTION_DDOT":0},{"OBJECT_NAME":"GLOBAL-34","OBJECT_ID":"2026-043A","EPOCH":"2026-03-09T11:23:30.999840","MEAN_MOTION":15.31488019,"ECCENTRICITY":0.00068849,"INCLINATION":42.0215,"RA_OF_ASC_NODE":76.7399,"ARG_OF_PERICENTER":289.2632,"MEAN_ANOMALY":70.746,"EPHEMERIS_TYPE":0,"CLASSIFICATION_TYPE":"U","NORAD_CAT_ID":68098,"ELEMENT_SET_NO":999,"REV_AT_EPOCH":53,"BSTAR":0.00045822046,"MEAN_MOTION_DOT":0.00014018,"MEAN_MOTION_DDOT":0}]
