STARLINK-35740          
1 66210U 25244E   26068.76066554  .00009697  00000+0  33890-3 0  9999
2 66210  53.1592 229.3552 0001353  59.5260 300.5874 15.30219277 21679
GLOBAL-34               
1 68098U 26043A   26068.47466435  .00014018  00000+0  45822-3 0  9994
2 68098  42.0215  76.7399 0006884 289.2632  70.7460 15.31488019   538
